UNKNOWN                 
1 81052U          25186.66030048  .00005379  00000+0  15426-2 0  9998
2 81052  65.7729  72.7513 0562793  25.4696 337.2992 13.80397889578206
UNKNOWN                 
1 81069U          25185.41005032  .00003009  00000+0  40886-2 0  9999
2 81069 100.3836  76.9861 0066867  79.5034 281.3628 13.59225032494004
UNKNOWN                 
1 81078U          25183.34314066  .00000125  00000+0  49606-2 0  9994
2 81078  65.1115 157.7543 0177945  39.4193 110.6709 11.22394846476280
UNKNOWN                 
1 81111U          25186.04232168  .00026174  00000+0  47896-2 0  9995
2 81111  62.8668 169.4027 3909310 350.8585   3.7270  7.48606444259859
UNKNOWN                 
1 81123U 70025    25180.45385233  .00000638  00000+0  64957-3 0  9998
2 81123  99.9802 252.7648 0005026 134.2283 225.9281 13.81147109583329
UNKNOWN                 
1 81134U          25186.44300286  .00000175  00000+0  61462-3 0  9990
2 81134  90.2470   0.3781 0028365  91.2886 269.1482 12.92925438441891
UNKNOWN                 
1 81161U          25183.30415513  .00001139  00000+0  12284-2 0  9990
2 81161 100.4254  10.3098 0058293 341.0330  18.8645 13.75185569533662
UNKNOWN                 
1 81219U 81053    25184.13000920  .00000416  00000+0  37534-3 0  9998
2 81219  82.9265 128.2702 0020651 319.3830  40.5789 13.81595335585068
UNKNOWN                 
1 81228U          25184.62536173  .00002848  00000+0  92463-3 0  9992
2 81228  70.5222 279.6995 0067002 247.2125 112.1919 14.38506347602762
UNKNOWN                 
1 81254U 70025    25178.32164371  .00002945  00000+0  19835-2 0  9991
2 81254 100.3899 217.4712 0073961 154.6461 205.8357 14.00210707589317
UNKNOWN                 
1 81279U          25186.64588571  .00001176  00000+0  46335-3 0  9991
2 81279  98.1472 258.8113 0210004 133.6978 228.1814 14.19443928439885
UNKNOWN                 
1 81301U          25184.13899953  .00000168  00000+0  23990-3 0  9990
2 81301  66.7600 324.1962 0092179 335.4222 205.2170 13.76590751583979
UNKNOWN                 
1 81311U 90105    25184.62767715  .00000313  00000+0  75228-4 0  9994
2 81311  98.7544 234.0468 0130878 259.6041 253.8107 14.56221832615994
UNKNOWN                 
1 81317U 80089    25184.39887860  .00000112  00000+0  29383-3 0  9995
2 81317  67.1352 174.0290 0208327 150.3323 358.4879 13.37924704566919
UNKNOWN                 
1 81323U          25184.11381351  .00017672  00000+0  26253-2 0  9992
2 81323  65.7536 121.5016 0351425  39.8733 322.7617 14.40940985 89582
UNKNOWN                 
1 81329U          25179.00818230  .00000986  00000+0  39599-3 0  9999
2 81329  65.8201 153.4085 0829103 106.7446 262.6171 13.21290986555915
UNKNOWN                 
1 81341U          25182.12384546  .00010971  00000+0  27275-1 0  9999
2 81341  99.5177 146.2541 0385458 163.6873 197.7050 12.96574916502081
UNKNOWN                 
1 81343U          25186.25443713  .00004380  00000+0  33731-3 0  9994
2 81343  85.8724 284.9611 0011369 117.4001 242.8389 15.01350404430220
UNKNOWN                 
1 81359U          25185.77664454  .00000809  00000+0  83440-3 0  9998
2 81359  66.7973  77.1129 0107061  73.9997 287.2837 13.78526320583293
UNKNOWN                 
1 81366U          25184.45127504  .00000531  00000+0  21480-3 0  9998
2 81366  65.8825  95.8640 0718608 160.6643 202.3244 13.44607644 44136
UNKNOWN                 
1 81371U          25179.18805450  .00002044  00000+0  34733-3 0  9997
2 81371  98.8190 262.3953 0072904 164.8860 195.4545 14.68686599617236
UNKNOWN                 
1 81386U          25182.18752824  .00002890  00000+0  99961-3 0  9996
2 81386  71.0502 352.7904 0093781 347.1643  12.7102 14.34095418600636
UNKNOWN                 
1 81390U          25177.53408461  .00000416  00000+0  34914-2 0  9997
2 81390 103.1116  54.9434 0178605  78.7579 283.3493 12.35678591479194
UNKNOWN                 
1 81392U          25183.71027348  .00002565  00000+0  24804-2 0  9991
2 81392 100.3929 155.7957 0046415  85.8117  91.4921 13.80442259579676
UNKNOWN                 
1 81405U          25174.84066824  .00000834  00000+0  66691-3 0  9990
2 81405  99.4802 220.2264 0158193 323.5004  35.5452 13.88260581537948
UNKNOWN                 
1 81406U          25185.28812140  .00002104  00000+0  90509-3 0  9998
2 81406  65.8031 157.7877 0859515  31.3421 333.6017 13.11230679512502
UNKNOWN                 
1 81427U          25184.62118511  .00000827  00000+0  50740-3 0  9992
2 81427  98.7683  71.8840 0085327 133.6866 227.1415 14.06590794528979
UNKNOWN                 
1 81438U          25185.90054495  .00001929  00000+0  29049-2 0  9997
2 81438 100.2997  50.9842 0052714 100.9757 259.7313 13.53708129570179
UNKNOWN                 
1 81439U          25185.44490336 -.00000145  00000+0 -24730-3 0  9999
2 81439  67.1608  93.7200 0607600 302.1662  52.1787 12.62512609241534
UNKNOWN                 
1 81449U 85042    25186.15337464  .00023717  00000+0  28910-2 0  9991
2 81449  66.7969  91.7807 0038792 262.1118  97.5604 14.82805106609644
UNKNOWN                 
1 81478U          25183.57613605  .00002703  00000+0  10096-2 0  9999
2 81478  98.9535  91.5751 0150381 110.2771  10.8641 14.26644638232331
UNKNOWN                 
1 81488U 75052    25185.39183623  .00000373  00000+0  59194-3 0  9997
2 81488 100.0259  55.4893 0046119  40.7479 142.3579 13.56387040574750
UNKNOWN                 
1 81497U          25186.15882464  .00003212  00000+0  29914-2 0  9993
2 81497 100.3112  65.7139 0030028  67.0636  87.7294 13.82686902194096
UNKNOWN                 
1 81499U          25184.93588533  .00001988  00000+0  56542-3 0  9995
2 81499  74.0483 162.9431 0003605 283.8011  76.2746 14.45989026459022
UNKNOWN                 
1 81535U          25186.48615067  .00000778  00000+0  33886-3 0  9993
2 81535  98.2068 281.8253 0235419 252.0242 105.5146 14.12899544364762
UNKNOWN                 
1 81536U 73086    25180.09524046  .00000319  00000+0  22318-2 0  9993
2 81536 101.9725  39.2358 0014278 259.5030 252.7692 12.55643301530894
UNKNOWN                 
1 81537U 93016    25185.43988309  .00000038  00000+0  49392-4 0  9999
2 81537  71.0393  82.9160 0076496  34.4043 326.1993 14.06961029597771
UNKNOWN                 
1 81552U          25181.82301775  .00000682  00000+0  15344-2 0  9995
2 81552  99.0554 131.3345 0265181  52.8004 309.7005 13.17781055557523
UNKNOWN                 
1 81599U          25185.95944057  .00000493  00000+0  97283-3 0  9993
2 81599  67.2970 268.7089 0255272 201.8206 333.0777 13.31263108563672
UNKNOWN                 
1 81605U          25185.06483697  .00003911  00000+0  16512-1 0  9993
2 81605  56.4319 311.3938 0154466 271.8474  86.4766 12.81001207165480
UNKNOWN                 
1 81614U 76077    25186.44311329  .00004658  00000+0  26562-1 0  9990
2 81614 101.7997 187.4411 0447485  83.5209 281.6588 12.35359456518174
UNKNOWN                 
1 81615U 92021    25186.31149704  .00000920  00000+0  33672-3 0  9990
2 81615  65.8275  75.7369 0787781 210.8772 144.3617 13.33032363561474
UNKNOWN                 
1 81617U 73086    25184.96288953  .00000283  00000+0  19354-2 0  9993
2 81617 101.2572   6.5090 0035802 193.9229 166.0863 12.57392129532771
UNKNOWN                 
1 81624U          25185.88741472  .00002760  00000+0  47597-3 0  9992
2 81624  66.9782 250.3296 0069562   1.6360 358.4974 14.68519623616077
UNKNOWN                 
1 81640U          25186.16054793  .00000236  00000+0  26943-3 0  9993
2 81640  65.8251 100.0715 0980446 143.4534 223.7644 12.57058030489894
UNKNOWN                 
1 81652U 76077    25184.43739648  .00000330  00000+0  44843-3 0  9994
2 81652 102.1676  39.2051 0369358   2.6192 114.0139 13.44114513556845
UNKNOWN                 
1 81667U          25185.67832745  .00001479  00000+0  41412-3 0  9996
2 81667  74.0416 337.6376 0014987 315.0158  44.9786 14.46922448433348
UNKNOWN                 
1 81674U          25185.38895737  .00000712  00000+0  45132-3 0  9994
2 81674  66.8220  50.3844 0030704 326.6954 213.4587 14.09463547590978
UNKNOWN                 
1 81683U          25186.47909080  .00002767  00000+0  62414-3 0  9996
2 81683  81.2170 104.1526 0027107  65.9327 294.4701 14.55899475612536
UNKNOWN                 
1 81693U 73086    25176.45158040 -.00000772  00000+0 -52598-2 0  9997
2 81693 101.0760 256.7292 0375779  47.1426 316.0564 12.25637570946900
UNKNOWN                 
1 81745U          25185.80482093  .00001762  00000+0  58315-3 0  9990
2 81745  71.0006  19.4339 0005234 109.7040 250.4660 14.39293515606585
UNKNOWN                 
1 81749U          25180.39685485  .00000285  00000+0  11001-2 0  9992
2 81749  99.7040 233.9182 0369540 213.9329 214.4291 12.77538865540761
UNKNOWN                 
1 81775U          25185.45438507  .00004749  00000+0  15517-2 0  9999
2 81775  82.9211 357.6416 0019159  30.1008 330.1280 14.38312696602077
UNKNOWN                 
1 81792U          25184.18255119  .00001328  00000+0  50839-3 0  9990
2 81792  65.8257 100.8677 0893029 354.1712   4.9439 13.10211420 58732
UNKNOWN                 
1 81812U          25186.15482845  .00005280  00000+0  36977-1 0  9996
2 81812 103.7611  77.3220 0269663 134.8332 227.4979 12.36289404520701
UNKNOWN                 
1 81816U 77121    25186.40413628  .00000535  00000+0  44771-3 0  9990
2 81816  66.2376 335.6591 0178776 336.3045  22.9866 13.88890373587078
UNKNOWN                 
1 81819U          25185.79010501  .00000250  00000+0  20142-2 0  9998
2 81819 102.1762 280.7519 0035397  63.9412 296.5292 12.47398301527942
UNKNOWN                 
1 81824U          25185.26814532  .00003737  00000+0  13790-2 0  9996
2 81824  65.8445  57.3136 0028255  59.4563 300.9312 14.33406964601438
UNKNOWN                 
1 81833U          25184.46786154  .00000256  00000+0  90302-3 0  9993
2 81833  90.2391 359.3265 0029520  89.1455 271.3046 12.93650749431537
